$$SOE
2460154.500000000, A.D. 2023-Jul-29 00:00:00.0000, -3.338434270997066E+08, -1.762859455826274E+08, -1.713661109304439E+07,
2460161.500000000, A.D. 2023-Aug-05 00:00:00.0000, -3.269075511372736E+08, -1.843624606589193E+08, -1.779116787067119E+07,
2460168.500000000, A.D. 2023-Aug-12 00:00:00.0000, -3.196725694931051E+08, -1.922702417167317E+08, -1.842943854654561E+07,
2460175.500000000, A.D. 2023-Aug-19 00:00:00.0000, -3.121398174607000E+08, -1.999988714299442E+08, -1.905053384970987E+07,
2460182.500000000, A.D. 2023-Aug-26 00:00:00.0000, -3.043109049176147E+08, -2.075376827882721E+08, -1.965354462140420E+07,
2460189.500000000, A.D. 2023-Sep-02 00:00:00.0000, -2.961877384626281E+08, -2.148757537517777E+08, -2.023754148543483E+07,
2460196.500000000, A.D. 2023-Sep-09 00:00:00.0000, -2.877725451999263E+08, -2.220019027195455E+08, -2.080157460016455E+07,
2460203.500000000, A.D. 2023-Sep-16 00:00:00.0000, -2.790678980915176E+08, -2.289046850140300E+08, -2.134467352509899E+07,
2460210.500000000, A.D. 2023-Sep-23 00:00:00.0000, -2.700767425500419E+08, -2.355723902574147E+08, -2.186584723128062E+07,
2460217.500000000, A.D. 2023-Sep-30 00:00:00.0000, -2.608024246968739E+08, -2.419930396334759E+08, -2.236408414322218E+07,
2460224.500000000, A.D. 2023-Oct-07 00:00:00.0000, -2.512487237184933E+08, -2.481543837856800E+08, -2.283835205902319E+07,
2460231.500000000, A.D. 2023-Oct-14 00:00:00.0000, -2.414198873536943E+08, -2.540439049009421E+08, -2.328759833556409E+07,
2460238.500000000, A.D. 2023-Oct-21 00:00:00.0000, -2.313206673480977E+08, -2.596488216424030E+08, -2.371075052730624E+07,
2460245.500000000, A.D. 2023-Oct-28 00:00:00.0000, -2.209563563515708E+08, -2.649560949653868E+08, -2.410671718878761E+07,
2460252.500000000, A.D. 2023-Nov-04 00:00:00.0000, -2.103328275392417E+08, -2.699524359115148E+08, -2.447438881676589E+07,
2460259.500000000, A.D. 2023-Nov-11 00:00:00.0000, -1.994565767833404E+08, -2.746243163397770E+08, -2.481263902771497E+07,
2460266.500000000, A.D. 2023-Nov-18 00:00:00.0000, -1.883347671304450E+08, -2.789579830561848E+08, -2.512032602981012E+07,
2460273.500000000, A.D. 2023-Nov-25 00:00:00.0000, -1.769752754500340E+08, -2.829394757567381E+08, -2.539629443146640E+07,
2460280.500000000, A.D. 2023-Dec-02 00:00:00.0000, -1.653867411217789E+08, -2.865546492704123E+08, -2.563937743015559E+07,
2460287.500000000, A.D. 2023-Dec-09 00:00:00.0000, -1.535786165251369E+08, -2.897892006731482E+08, -2.584839943636890E+07,
2460294.500000000, A.D. 2023-Dec-16 00:00:00.0000, -1.415612188195976E+08, -2.926287018081374E+08, -2.602217920368622E+07,
2460301.500000000, A.D. 2023-Dec-23 00:00:00.0000, -1.293457823665027E+08, -2.950586371060906E+08, -2.615953348886096E+07,
2460308.500000000, A.D. 2023-Dec-30 00:00:00.0000, -1.169445127427994E+08, -2.970644462646137E+08, -2.625928108328740E+07,
2460315.500000000, A.D. 2024-Jan-06 00:00:00.0000, -1.043706436252292E+08, -2.986315747759516E+08, -2.632024729762034E+07,
2460322.500000000, A.D. 2024-Jan-13 00:00:00.0000, -9.163849276134335E+07, -2.997455347529806E+08, -2.634126939065349E+07,
2460329.500000000, A.D. 2024-Jan-20 00:00:00.0000, -7.876351506411085E+07, -3.003919736127470E+08, -2.632120285449336E+07,
2460336.500000000, A.D. 2024-Jan-27 00:00:00.0000, -6.576235397440821E+07, -3.005567505885015E+08, -2.625892836581679E+07,
2460343.500000000, A.D. 2024-Feb-03 00:00:00.0000, -5.265289047643849E+07, -3.002260225996379E+08, -2.615335948601779E+07,
2460350.500000000, A.D. 2024-Feb-10 00:00:00.0000, -3.945428827667126E+07, -2.993863402816483E+08, -2.600345119680718E+07,
2460357.500000000, A.D. 2024-Feb-17 00:00:00.0000, -2.618703361805185E+07, -2.980247545731052E+08, -2.580820930980963E+07,
2460364.500000000, A.D. 2024-Feb-24 00:00:00.0000, -1.287296811883345E+07, -2.961289341029937E+08, -2.556670076398657E+07,
2460371.500000000, A.D. 2024-Mar-02 00:00:00.0000, 4.646871561943832E+05, -2.936872934800915E+08, -2.527806480967456E+07,
2460378.500000000, A.D. 2024-Mar-09 00:00:00.0000, 1.380131847684914E+07, -2.906891323853140E+08, -2.494152506996869E+07,
2460385.500000000, A.D. 2024-Mar-16 00:00:00.0000, 2.711091958475752E+07, -2.871247848354427E+08, -2.455640245041271E+07,
2460392.500000000, A.D. 2024-Mar-23 00:00:00.0000, 4.036610731142379E+07, -2.829857767522562E+08, -2.412212872139624E+07,
2460399.500000000, A.D. 2024-Mar-30 00:00:00.0000, 5.353815273004758E+07, -2.782649907165513E+08, -2.363826046014583E+07,
2460406.500000000, A.D. 2024-Apr-06 00:00:00.0000, 6.659703040033954E+07, -2.729568396703456E+08, -2.310449350023894E+07,
2460413.500000000, A.D. 2024-Apr-13 00:00:00.0000, 7.951149149959576E+07, -2.670574466272862E+08, -2.252067795140511E+07,
2460420.500000000, A.D. 2024-Apr-20 00:00:00.0000, 9.224916197231579E+07, -2.605648250826502E+08, -2.188683324374260E+07,
2460427.500000000, A.D. 2024-Apr-27 00:00:00.0000, 1.047766659928938E+08, -2.534790575052861E+08, -2.120316281783712E+07,
2460434.500000000, A.D. 2024-May-04 00:00:00.0000, 1.170597762390177E+08, -2.458024688965969E+08, -2.047006819739966E+07,
2460441.500000000, A.D. 2024-May-11 00:00:00.0000, 1.290635920815431E+08, -2.375397912985159E+08, -1.968816210586451E+07,
2460448.500000000, A.D. 2024-May-18 00:00:00.0000, 1.407527459525284E+08, -2.286983145772866E+08, -1.885828023072852E+07,
2460455.500000000, A.D. 2024-May-25 00:00:00.0000, 1.520916372678396E+08, -2.192880185118686E+08, -1.798149121333435E+07,
2460462.500000000, A.D. 2024-Jun-01 00:00:00.0000, 1.630446923693641E+08, -2.093216810853119E+08, -1.705910443998003E+07,
2460469.500000000, A.D. 2024-Jun-08 00:00:00.0000, 1.735766481056581E+08, -1.988149578596676E+08, -1.609267523252551E+07,
2460476.500000000, A.D. 2024-Jun-15 00:00:00.0000, 1.836528557326020E+08, -1.877864269991763E+08, -1.508400703120330E+07,
2460483.500000000, A.D. 2024-Jun-22 00:00:00.0000, 1.932395993093879E+08, -1.762575943716670E+08, -1.403515003006720E+07,
2460490.500000000, A.D. 2024-Jun-29 00:00:00.0000, 2.023044206097327E+08, -1.642528568990962E+08, -1.294839593883179E+07,
2460497.500000000, A.D. 2024-Jul-06 00:00:00.0000, 2.108164464363496E+08, -1.517994239815014E+08, -1.182626912803572E+07,
2460504.500000000, A.D. 2024-Jul-13 00:00:00.0000, 2.187467128446250E+08, -1.389271927727304E+08, -1.067151402968213E+07,
2460511.500000000, A.D. 2024-Jul-20 00:00:00.0000, 2.260684764268853E+08, -1.256685762026836E+08, -9.487078567510918E+06,
2460518.500000000, A.D. 2024-Jul-27 00:00:00.0000, 2.327575040381399E+08, -1.120582863049280E+08, -8.276093819779374E+06,
2460525.500000000, A.D. 2024-Aug-03 00:00:00.0000, 2.387923335336474E+08, -9.813307641650538E+07, -7.041850290626369E+06,
2460532.500000000, A.D. 2024-Aug-10 00:00:00.0000, 2.441544986145369E+08, -8.393144698512575E+07, -5.787771254849248E+06,
2460539.500000000, A.D. 2024-Aug-17 00:00:00.0000, 2.488287117477118E+08, -6.949332108222213E+07, -4.517383741535921E+06,
2460546.500000000, A.D. 2024-Aug-24 00:00:00.0000, 2.528030004056887E+08, -5.485969691581696E+07, -3.234287814695820E+06,
2460553.500000000, A.D. 2024-Aug-31 00:00:00.0000, 2.560687934938977E+08, -4.007228551619706E+07, -1.942124882901663E+06,
2460560.500000000, A.D. 2024-Sep-07 00:00:00.0000, 2.586209567558530E+08, -2.517314204630494E+07, -6.445458082726449E+05,
2460567.500000000, A.D. 2024-Sep-14 00:00:00.0000, 2.604577774013262E+08, -1.020429837983757E+07, 6.548205170937534E+05,
2460574.500000000, A.D. 2024-Sep-21 00:00:00.0000, 2.615808977966272E+08, 4.792595135741417E+06, 1.952397645198373E+06,
2460581.500000000, A.D. 2024-Sep-28 00:00:00.0000, 2.619952011198978E+08, 1.977660783003712E+07, 3.244690239340897E+06,
2460588.500000000, A.D. 2024-Oct-05 00:00:00.0000, 2.617086573196914E+08, 3.470784009582666E+07, 4.528310046288060E+06,
2460595.500000000, A.D. 2024-Oct-12 00:00:00.0000, 2.607321347214577E+08, 4.954770553241748E+07, 5.799999006845962E+06,
2460602.500000000, A.D. 2024-Oct-19 00:00:00.0000, 2.590791819679140E+08, 6.425917945952527E+07, 7.056649320882957E+06,
2460609.500000000, A.D. 2024-Oct-26 00:00:00.0000, 2.567657870871221E+08, 7.880701027101929E+07, 8.295320206785839E+06,
2460616.500000000, A.D. 2024-Nov-02 00:00:00.0000, 2.538101208318883E+08, 9.315789210908836E+07, 9.513251243379187E+06,
2460623.500000000, A.D. 2024-Nov-09 00:00:00.0000, 2.502322710414858E+08, 1.072805987760149E+08, 1.070787232104247E+07,
2460630.500000000, A.D. 2024-Nov-16 00:00:00.0000, 2.460539742369871E+08, 1.211460799071881E+08, 1.187681032797809E+07,
2460637.500000000, A.D. 2024-Nov-23 00:00:00.0000, 2.412983500385625E+08, 1.347275213276801E+08, 1.301789276844155E+07,
2460644.500000000, A.D. 2024-Nov-30 00:00:00.0000, 2.359896433969059E+08, 1.480003722694176E+08, 1.412914855451906E+07,
2460651.500000000, A.D. 2024-Dec-07 00:00:00.0000, 2.301529790226296E+08, 1.609423431226200E+08, 1.520880627168631E+07,
2460658.500000000, A.D. 2024-Dec-14 00:00:00.0000, 2.238141304378446E+08, 1.735333785260146E+08, 1.625529040720490E+07,
2460665.500000000, A.D. 2024-Dec-21 00:00:00.0000, 2.169993036226895E+08, 1.857556083077877E+08, 1.726721598949387E+07,
2460672.500000000, A.D. 2024-Dec-28 00:00:00.0000, 2.097349387887669E+08, 1.975932770694771E+08, 1.824338154827434E+07,
2460679.500000000, A.D. 2025-Jan-04 00:00:00.0000, 2.020475337342866E+08, 2.090326584020434E+08, 1.918276066299413E+07,
2460686.500000000, A.D. 2025-Jan-11 00:00:00.0000, 1.939634872003474E+08, 2.200619588062934E+08, 2.008449269291477E+07,
2460693.500000000, A.D. 2025-Jan-18 00:00:00.0000, 1.855089610747987E+08, 2.306712135558884E+08, 2.094787296836267E+07,
2460700.500000000, A.D. 2025-Jan-25 00:00:00.0000, 1.767097610798529E+08, 2.408521768667332E+08, 2.177234262668256E+07,
2460707.500000000, A.D. 2025-Feb-01 00:00:00.0000, 1.675912352344675E+08, 2.505982088223932E+08, 2.255747828541973E+07,
2460714.500000000, A.D. 2025-Feb-08 00:00:00.0000, 1.581781890280410E+08, 2.599041611893047E+08, 2.330298172628082E+07,
$$EOE